IRIDIUM 171             
1 43929U 19002H   24155.49869149 -.00000004  00000+0 -86716-5 0  9994
2 43929  86.3954 304.5918 0002400  97.7972 262.3497 14.34218501282364
IRIDIUM 170             
1 43930U 19002J   24155.46252277  .00001600  00000+0  24982-3 0  9997
2 43930  86.6075 304.4292 0002271  86.4826 273.6651 14.72258532289832
IRIDIUM 167             
1 43931U 19002K   24155.49234696  .00000479  00000+0  16388-3 0  9990
2 43931  86.3952 304.3877 0001883  84.5877 275.5534 14.34217260282368
IRIDIUM 181             
1 56726U 23068S   24155.52108333  .00000588  00000+0  16797-3 0  9990
2 56726  86.8642 357.4439 0002152  93.5513 266.5934 14.43588703 55168
IRIDIUM 177             
1 56727U 23068T   24155.50209755  .00002240  00000+0  29122-3 0  9992
2 56727  86.1958 321.8611 0002438  96.1202 264.0296 14.80234740 56356
IRIDIUM 174             
1 56728U 23068U   24155.49667059  .00002241  00000+0  29140-3 0  9997
2 56728  86.1964 321.9663 0001972  90.3481 269.7966 14.80233393 56358
IRIDIUM 178             
1 56729U 23068V   24155.49132190  .00000776  00000+0  98704-4 0  9995
2 56729  86.5772 338.7851 0002025  81.4188 278.7263 14.80210173 56351
IRIDIUM 179             
1 56730U 23068W   24155.48562745  .00000717  00000+0  90927-4 0  9993
2 56730  86.6770 342.7476 0002022  89.3012 270.8441 14.80203783 56350
